start=new Date('2023-06-21T00:00:00.000Z').valueOf();
sats=[{"MEAN_MOTION":"15.08835178","MEAN_MOTION_DOT":"0.00000459","TIME_SYSTEM":"UTC","OBJECT_TYPE":"PAYLOAD","BSTAR":"0.00004694400000","MEAN_ANOMALY":"282.9253","EPOCH":"2023-06-20T07:27:46.235520","ARG_OF_PERICENTER":"77.1836","LAUNCH_DATE":"2022-06-17","MEAN_MOTION_DDOT":"0.0000000000000","TLE_LINE1":"1 52847U 22062T   23171.31095180  .00000459  00000-0  46944-4 0  9998","RA_OF_ASC_NODE":"173.5713","FILE":"3938135","TLE_LINE2":"2 52847  53.2160 173.5713 0000862  77.1836 282.9253 15.08835178 55827","PERIOD":"95.438","COUNTRY_CODE":"US","SITE":"AFETR","INCLINATION":"53.2160","CLASSIFICATION_TYPE":"U","DECAY_DATE":null,"ECCENTRICITY":"0.00008620","EPHEMERIS_TYPE":"0","ELEMENT_SET_NO":"999","CENTER_NAME":"EARTH","OBJECT_ID":"2022-062T","GP_ID":"234360806","NORAD_CAT_ID":"52847","SEMIMAJOR_AXIS":"6917.895","APOAPSIS":"540.356","PERIAPSIS":"539.164","RCS_SIZE":"LARGE","MEAN_ELEMENT_THEORY":"SGP4","OBJECT_NAME":"STARLINK-4206","REF_FRAME":"TEME","REV_AT_EPOCH":"5582"},{"MEAN_MOTION_DDOT":"0.0000000000000","TLE_LINE2":"2 52848  53.2155 173.7827 0001051  81.8912 278.2199 15.08831765 55812","COUNTRY_CODE":"US","PERIOD":"95.438","FILE":"3938135","TLE_LINE1":"1 52848U 22062U   23171.26313171  .00001466  00000-0  11019-3 0  9999","RA_OF_ASC_NODE":"173.7827","MEAN_MOTION_DOT":"0.00001466","TIME_SYSTEM":"UTC","BSTAR":"0.00011019000000","OBJECT_TYPE":"PAYLOAD","MEAN_MOTION":"15.08831765","ARG_OF_PERICENTER":"81.8912","EPOCH":"2023-06-20T06:18:54.579744","LAUNCH_DATE":"2022-06-17","MEAN_ANOMALY":"278.2199","SEMIMAJOR_AXIS":"6917.906","GP_ID":"234361057","NORAD_CAT_ID":"52848","PERIAPSIS":"539.043","APOAPSIS":"540.498","ELEMENT_SET_NO":"999","EPHEMERIS_TYPE":"0","OBJECT_ID":"2022-062U","CENTER_NAME":"EARTH","OBJECT_NAME":"STARLINK-4202","REF_FRAME":"TEME","REV_AT_EPOCH":"5581","RCS_SIZE":"LARGE","MEAN_ELEMENT_THEORY":"SGP4","SITE":"AFETR","INCLINATION":"53.2155","ECCENTRICITY":"0.00010510","DECAY_DATE":null,"CLASSIFICATION_TYPE":"U"},{"OBJECT_ID":"2022-062V","CENTER_NAME":"EARTH","EPHEMERIS_TYPE":"0","ELEMENT_SET_NO":"999","PERIAPSIS":"539.005","APOAPSIS":"540.483","GP_ID":"234361292","SEMIMAJOR_AXIS":"6917.879","NORAD_CAT_ID":"52849","MEAN_ELEMENT_THEORY":"SGP4","RCS_SIZE":"LARGE","REV_AT_EPOCH":"5594","OBJECT_NAME":"STARLINK-4197","REF_FRAME":"TEME","INCLINATION":"53.2157","SITE":"AFETR","DECAY_DATE":null,"CLASSIFICATION_TYPE":"U","ECCENTRICITY":"0.00010680","MEAN_MOTION_DDOT":"0.0000000000000","FILE":"3938135","RA_OF_ASC_NODE":"163.8953","TLE_LINE1":"1 52849U 22062V   23171.23827117  .00001518  00000-0  11342-3 0  9994","COUNTRY_CODE":"US","PERIOD":"95.438","TLE_LINE2":"2 52849  53.2157 163.8953 0001068  82.6937 277.4176 15.08840549 55949","MEAN_MOTION":"15.08840549","OBJECT_TYPE":"PAYLOAD","BSTAR":"0.00011342000000","TIME_SYSTEM":"UTC","MEAN_MOTION_DOT":"0.00001518","MEAN_ANOMALY":"277.4176","LAUNCH_DATE":"2022-06-17","ARG_OF_PERICENTER":"82.6937","EPOCH":"2023-06-20T05:43:06.629088"},{"MEAN_ELEMENT_THEORY":"SGP4","RCS_SIZE":"LARGE","REV_AT_EPOCH":"5583","REF_FRAME":"TEME","OBJECT_NAME":"STARLINK-4187","OBJECT_ID":"2022-062W","CENTER_NAME":"EARTH","ELEMENT_SET_NO":"999","EPHEMERIS_TYPE":"0","PERIAPSIS":"539.064","APOAPSIS":"540.453","NORAD_CAT_ID":"52850","GP_ID":"234360557","SEMIMAJOR_AXIS":"6917.893","DECAY_DATE":null,"CLASSIFICATION_TYPE":"U","ECCENTRICITY":"0.00010040","INCLINATION":"53.2154","SITE":"AFETR","FILE":"3938135","RA_OF_ASC_NODE":"173.2547","TLE_LINE1":"1 52850U 22062W   23171.38087276  .00000736  00000-0  64300-4 0  9990","COUNTRY_CODE":"US","PERIOD":"95.438","TLE_LINE2":"2 52850  53.2154 173.2547 0001004  75.9502 284.1601 15.08835744 55832","MEAN_MOTION_DDOT":"0.0000000000000","MEAN_ANOMALY":"284.1601","LAUNCH_DATE":"2022-06-17","EPOCH":"2023-06-20T09:08:27.406464","ARG_OF_PERICENTER":"75.9502","MEAN_MOTION":"15.08835744","OBJECT_TYPE":"PAYLOAD","BSTAR":"0.00006430000000","TIME_SYSTEM":"UTC","MEAN_MOTION_DOT":"0.00000736"},{"FILE":"3938135","RA_OF_ASC_NODE":"163.3184","TLE_LINE1":"1 52851U 22062X   23171.36707071  .00001636  00000-0  12087-3 0  9995","TLE_LINE2":"2 52851  53.2155 163.3184 0000954  74.4082 285.7015 15.08841036 55962","COUNTRY_CODE":"US","PERIOD":"95.437","MEAN_MOTION_DDOT":"0.0000000000000","MEAN_ANOMALY":"285.7015","EPOCH":"2023-06-20T08:48:34.909344","ARG_OF_PERICENTER":"74.4082","LAUNCH_DATE":"2022-06-17","MEAN_MOTION":"15.08841036","TIME_SYSTEM":"UTC","MEAN_MOTION_DOT":"0.00001636","BSTAR":"0.00012087000000","OBJECT_TYPE":"PAYLOAD","RCS_SIZE":"LARGE","MEAN_ELEMENT_THEORY":"SGP4","OBJECT_NAME":"STARLINK-3809","REF_FRAME":"TEME","REV_AT_EPOCH":"5596","ELEMENT_SET_NO":"999","EPHEMERIS_TYPE":"0","OBJECT_ID":"2022-062X","CENTER_NAME":"EARTH","GP_ID":"234360306","NORAD_CAT_ID":"52851","SEMIMAJOR_AXIS":"6917.877","PERIAPSIS":"539.082","APOAPSIS":"540.402","DECAY_DATE":null,"CLASSIFICATION_TYPE":"U","ECCENTRICITY":"0.00009540","SITE":"AFETR","INCLINATION":"53.2155"},{"EPHEMERIS_TYPE":"0","ELEMENT_SET_NO":"999","OBJECT_ID":"2022-062Y","CENTER_NAME":"EARTH","GP_ID":"234361558","SEMIMAJOR_AXIS":"6917.879","NORAD_CAT_ID":"52852","PERIAPSIS":"539.015","APOAPSIS":"540.473","RCS_SIZE":"LARGE","MEAN_ELEMENT_THEORY":"SGP4","OBJECT_NAME":"STARLINK-4184","REF_FRAME":"TEME","REV_AT_EPOCH":"5596","SITE":"AFETR","INCLINATION":"53.2158","DECAY_DATE":null,"CLASSIFICATION_TYPE":"U","ECCENTRICITY":"0.00010540","MEAN_MOTION_DDOT":"0.0000000000000","FILE":"3938135","RA_OF_ASC_NODE":"163.2837","TLE_LINE1":"1 52852U 22062Y   23171.37442882  .00001016  00000-0  81916-4 0  9993","TLE_LINE2":"2 52852  53.2158 163.2837 0001054  80.4742 279.6369 15.08840366 55961","COUNTRY_CODE":"US","PERIOD":"95.438","MEAN_MOTION":"15.08840366","TIME_SYSTEM":"UTC","MEAN_MOTION_DOT":"0.00001016","OBJECT_TYPE":"PAYLOAD","BSTAR":"0.00008191600000","MEAN_ANOMALY":"279.6369","EPOCH":"2023-06-20T08:59:10.650048","ARG_OF_PERICENTER":"80.4742","LAUNCH_DATE":"2022-06-17"},{"FILE":"3938135","RA_OF_ASC_NODE":"164.8209","TLE_LINE1":"1 52853U 22062Z   23171.02578551  .00000626  00000-0  57413-4 0  9990","COUNTRY_CODE":"US","PERIOD":"95.438","TLE_LINE2":"2 52853  53.2157 164.8209 0001028  91.0679 269.0431 15.08835622 55916","MEAN_MOTION_DDOT":"0.0000000000000","MEAN_ANOMALY":"269.0431","LAUNCH_DATE":"2022-06-17","EPOCH":"2023-06-20T00:37:07.868064","ARG_OF_PERICENTER":"91.0679","MEAN_MOTION":"15.08835622","BSTAR":"0.00005741300000","OBJECT_TYPE":"PAYLOAD","TIME_SYSTEM":"UTC","MEAN_MOTION_DOT":"0.00000626","MEAN_ELEMENT_THEORY":"SGP4","RCS_SIZE":"LARGE","REV_AT_EPOCH":"5591","OBJECT_NAME":"STARLINK-4189","REF_FRAME":"TEME","OBJECT_ID":"2022-062Z","CENTER_NAME":"EARTH","EPHEMERIS_TYPE":"0","ELEMENT_SET_NO":"999","PERIAPSIS":"539.048","APOAPSIS":"540.470","GP_ID":"234361793","SEMIMAJOR_AXIS":"6917.894","NORAD_CAT_ID":"52853","DECAY_DATE":null,"CLASSIFICATION_TYPE":"U","ECCENTRICITY":"0.00010280","INCLINATION":"53.2157","SITE":"AFETR"},{"REV_AT_EPOCH":"5598","REF_FRAME":"TEME","OBJECT_NAME":"STARLINK-4204","MEAN_ELEMENT_THEORY":"SGP4","RCS_SIZE":"LARGE","APOAPSIS":"540.386","PERIAPSIS":"539.101","NORAD_CAT_ID":"52854","GP_ID":"234394041","SEMIMAJOR_AXIS":"6917.878","CENTER_NAME":"EARTH","OBJECT_ID":"2022-062AA","ELEMENT_SET_NO":"999","EPHEMERIS_TYPE":"0","ECCENTRICITY":"0.00009290","CLASSIFICATION_TYPE":"U","DECAY_DATE":null,"INCLINATION":"53.2155","SITE":"AFETR","PERIOD":"95.438","COUNTRY_CODE":"US","TLE_LINE2":"2 52854  53.2155 162.7386 0000929  70.8000 289.3092 15.08840640 55981","RA_OF_ASC_NODE":"162.7386","TLE_LINE1":"1 52854U 22062AA  23171.49586900  .00001240  00000-0  95945-4 0  9994","FILE":"3938544","MEAN_MOTION_DDOT":"0.0000000000000","LAUNCH_DATE":"2022-06-17","ARG_OF_PERICENTER":"70.8000","EPOCH":"2023-06-20T11:54:03.081600","MEAN_ANOMALY":"289.3092","OBJECT_TYPE":"PAYLOAD","BSTAR":"0.00009594500000","MEAN_MOTION_DOT":"0.00001240","TIME_SYSTEM":"UTC","MEAN_MOTION":"15.08840640"},{"MEAN_MOTION_DDOT":"0.0000000000000","RA_OF_ASC_NODE":"163.6834","TLE_LINE1":"1 52855U 22062AB  23171.28611232  .00000008  00000-0  18558-4 0  9995","FILE":"3938135","TLE_LINE2":"2 52855  53.2153 163.6834 0001095  73.9137 286.1976 15.08836669 55957","PERIOD":"95.438","COUNTRY_CODE":"US","MEAN_MOTION":"15.08836669","MEAN_MOTION_DOT":"0.00000008","TIME_SYSTEM":"UTC","BSTAR":"0.00001855800000","OBJECT_TYPE":"PAYLOAD","MEAN_ANOMALY":"286.1976","ARG_OF_PERICENTER":"73.9137","EPOCH":"2023-06-20T06:52:00.104448","LAUNCH_DATE":"2022-06-17","ELEMENT_SET_NO":"999","EPHEMERIS_TYPE":"0","CENTER_NAME":"EARTH","OBJECT_ID":"2022-062AB","GP_ID":"234360807","NORAD_CAT_ID":"52855","SEMIMAJOR_AXIS":"6917.891","APOAPSIS":"540.513","PERIAPSIS":"538.998","RCS_SIZE":"LARGE","MEAN_ELEMENT_THEORY":"SGP4","REF_FRAME":"TEME","OBJECT_NAME":"STARLINK-4209","REV_AT_EPOCH":"5595","SITE":"AFETR","INCLINATION":"53.2153","CLASSIFICATION_TYPE":"U","DECAY_DATE":null,"ECCENTRICITY":"0.00010950"},{"MEAN_MOTION":"15.08838996","BSTAR":"0.00002639300000","OBJECT_TYPE":"PAYLOAD","TIME_SYSTEM":"UTC","MEAN_MOTION_DOT":"0.00000132","MEAN_ANOMALY":"278.5342","LAUNCH_DATE":"2022-06-17","ARG_OF_PERICENTER":"81.5759","EPOCH":"2023-06-20T08:32:41.132832","MEAN_MOTION_DDOT":"0.0000000000000","RA_OF_ASC_NODE":"163.3687","TLE_LINE1":"1 52856U 22062AC  23171.35603163  .00000132  00000-0  26393-4 0  9992","FILE":"3938135","PERIOD":"95.438","COUNTRY_CODE":"US","TLE_LINE2":"2 52856  53.2148 163.3687 0000956  81.5759 278.5342 15.08838996 55963","INCLINATION":"53.2148","SITE":"AFETR","CLASSIFICATION_TYPE":"U","DECAY_DATE":null,"ECCENTRICITY":"0.00009560","CENTER_NAME":"EARTH","OBJECT_ID":"2022-062AC","ELEMENT_SET_NO":"999","EPHEMERIS_TYPE":"0","APOAPSIS":"540.410","PERIAPSIS":"539.087","GP_ID":"234361058","SEMIMAJOR_AXIS":"6917.883","NORAD_CAT_ID":"52856","MEAN_ELEMENT_THEORY":"SGP4","RCS_SIZE":"LARGE","REV_AT_EPOCH":"5596","OBJECT_NAME":"STARLINK-4201","REF_FRAME":"TEME"}];
